ORBCOMM FM115           
1 41186U 15081H   25157.80257137  .00000637  00000+0  15894-3 0  9993
2 41186  46.9987  88.9444 0001167 331.6851  28.3973 14.62486687506256
ORBCOMM FM108           
1 41187U 15081J   25157.68683302  .00000550  00000+0  15480-3 0  9992
2 41187  47.0033 156.5596 0003668 272.0991  87.9474 14.58153154505264
ORBCOMM FM117           
1 41188U 15081K   25158.13266757  .00000225  00000+0  85111-4 0  9993
2 41188  46.9995 153.2188 0004171 278.9191  81.1222 14.58138345505428
ORBCOMM FM116           
1 41189U 15081L   25158.53256221  .00000622  00000+0  17004-3 0  9999
2 41189  47.0016 241.1789 0001451 134.7139 225.3865 14.58165503504316
